start=new Date('2022-10-15T00:00:00.000Z').valueOf();
sats=[{"TLE_LINE2":"2 50822  53.2158 345.6472 0001949  38.8153 321.2979 15.08873304 42878","OBJECT_NAME":"STARLINK-3343","REV_AT_EPOCH":"4287","COUNTRY_CODE":"US","EPHEMERIS_TYPE":"0","EPOCH":"2022-10-14T11:26:42.171072","MEAN_MOTION_DOT":"-0.00014235","ARG_OF_PERICENTER":"38.8153","INCLINATION":"53.2158","FILE":"3611991","MEAN_MOTION":"15.08873304","NORAD_CAT_ID":"50822","CLASSIFICATION_TYPE":"U","MEAN_ANOMALY":"321.2979","OBJECT_ID":"2022-001V","MEAN_MOTION_DDOT":"0.0000000000000","ELEMENT_SET_NO":"999","SEMIMAJOR_AXIS":"6917.779","DECAY_DATE":null,"PERIOD":"95.435","CENTER_NAME":"EARTH","RCS_SIZE":"LARGE","TIME_SYSTEM":"UTC","BSTAR":"-0.00087724000000","ECCENTRICITY":"0.00019490","APOAPSIS":"540.992","RA_OF_ASC_NODE":"345.6472","GP_ID":"215103391","SITE":"AFETR","OBJECT_TYPE":"PAYLOAD","REF_FRAME":"TEME","PERIAPSIS":"538.295","TLE_LINE1":"1 50822U 22001V   22287.47687698 -.00014235  00000-0 -87724-3 0  9996","LAUNCH_DATE":"2022-01-06","MEAN_ELEMENT_THEORY":"SGP4"},{"REF_FRAME":"TEME","PERIAPSIS":"538.493","TLE_LINE1":"1 50823U 22001W   22287.51001583 -.00000380  00000-0 -57460-5 0  9997","LAUNCH_DATE":"2022-01-06","MEAN_ELEMENT_THEORY":"SGP4","BSTAR":"-0.00000574600000","CENTER_NAME":"EARTH","RCS_SIZE":"LARGE","TIME_SYSTEM":"UTC","APOAPSIS":"540.966","RA_OF_ASC_NODE":"345.4956","GP_ID":"215103641","SITE":"AFETR","OBJECT_TYPE":"PAYLOAD","ECCENTRICITY":"0.00017870","MEAN_ANOMALY":"317.4677","OBJECT_ID":"2022-001W","CLASSIFICATION_TYPE":"U","DECAY_DATE":null,"PERIOD":"95.437","MEAN_MOTION_DDOT":"0.0000000000000","ELEMENT_SET_NO":"999","SEMIMAJOR_AXIS":"6917.865","COUNTRY_CODE":"US","EPOCH":"2022-10-14T12:14:25.367712","EPHEMERIS_TYPE":"0","TLE_LINE2":"2 50823  53.2179 345.4956 0001787  42.6454 317.4677 15.08845152 42887","REV_AT_EPOCH":"4288","OBJECT_NAME":"STARLINK-3334","MEAN_MOTION":"15.08845152","NORAD_CAT_ID":"50823","MEAN_MOTION_DOT":"-0.00000380","INCLINATION":"53.2179","ARG_OF_PERICENTER":"42.6454","FILE":"3611991"},{"REV_AT_EPOCH":"4289","OBJECT_NAME":"STARLINK-3340","TLE_LINE2":"2 50824  53.2169 345.0656 0002225  32.0586 328.0541 15.08848511 42898","COUNTRY_CODE":"US","EPOCH":"2022-10-14T14:32:12.240672","EPHEMERIS_TYPE":"0","INCLINATION":"53.2169","ARG_OF_PERICENTER":"32.0586","FILE":"3612869","MEAN_MOTION_DOT":"0.00003516","NORAD_CAT_ID":"50824","MEAN_MOTION":"15.08848511","CLASSIFICATION_TYPE":"U","OBJECT_ID":"2022-001X","MEAN_ANOMALY":"328.0541","SEMIMAJOR_AXIS":"6917.854","MEAN_MOTION_DDOT":"0.0000000000000","ELEMENT_SET_NO":"999","DECAY_DATE":null,"PERIOD":"95.437","RCS_SIZE":"LARGE","TIME_SYSTEM":"UTC","CENTER_NAME":"EARTH","BSTAR":"0.00023885000000","ECCENTRICITY":"0.00022250","SITE":"AFETR","OBJECT_TYPE":"PAYLOAD","APOAPSIS":"541.259","GP_ID":"215144582","RA_OF_ASC_NODE":"345.0656","PERIAPSIS":"538.180","REF_FRAME":"TEME","MEAN_ELEMENT_THEORY":"SGP4","TLE_LINE1":"1 50824U 22001X   22287.60569723  .00003516  00000-0  23885-3 0  9997","LAUNCH_DATE":"2022-01-06"},{"BSTAR":"0.00003052900000","TIME_SYSTEM":"UTC","RCS_SIZE":"LARGE","CENTER_NAME":"EARTH","OBJECT_TYPE":"PAYLOAD","SITE":"AFETR","RA_OF_ASC_NODE":"345.6223","GP_ID":"215102640","APOAPSIS":"541.336","ECCENTRICITY":"0.00022940","PERIAPSIS":"538.162","REF_FRAME":"TEME","MEAN_ELEMENT_THEORY":"SGP4","LAUNCH_DATE":"2022-01-06","TLE_LINE1":"1 50825U 22001Y   22287.48057214  .00000198  00000-0  30529-4 0  9998","EPHEMERIS_TYPE":"0","EPOCH":"2022-10-14T11:32:01.432896","COUNTRY_CODE":"US","REV_AT_EPOCH":"4287","OBJECT_NAME":"STARLINK-3332","TLE_LINE2":"2 50825  53.2167 345.6223 0002294  33.9023 326.2115 15.08838709 42878","NORAD_CAT_ID":"50825","MEAN_MOTION":"15.08838709","FILE":"3611991","INCLINATION":"53.2167","ARG_OF_PERICENTER":"33.9023","MEAN_MOTION_DOT":"0.00000198","OBJECT_ID":"2022-001Y","MEAN_ANOMALY":"326.2115","CLASSIFICATION_TYPE":"U","PERIOD":"95.438","DECAY_DATE":null,"SEMIMAJOR_AXIS":"6917.884","ELEMENT_SET_NO":"999","MEAN_MOTION_DDOT":"0.0000000000000"},{"MEAN_MOTION":"15.08834069","NORAD_CAT_ID":"50826","MEAN_MOTION_DOT":"0.00001448","FILE":"3611991","INCLINATION":"53.2188","ARG_OF_PERICENTER":"37.2804","EPOCH":"2022-10-14T11:00:14.296320","EPHEMERIS_TYPE":"0","COUNTRY_CODE":"US","TLE_LINE2":"2 50826  53.2188 345.7055 0002033  37.2804 322.8329 15.08834069 42875","OBJECT_NAME":"STARLINK-3337","REV_AT_EPOCH":"4287","PERIOD":"95.438","DECAY_DATE":null,"MEAN_MOTION_DDOT":"0.0000000000000","ELEMENT_SET_NO":"999","SEMIMAJOR_AXIS":"6917.899","OBJECT_ID":"2022-001Z","MEAN_ANOMALY":"322.8329","CLASSIFICATION_TYPE":"U","GP_ID":"215102891","RA_OF_ASC_NODE":"345.7055","APOAPSIS":"541.170","OBJECT_TYPE":"PAYLOAD","SITE":"AFETR","ECCENTRICITY":"0.00020330","BSTAR":"0.00010909000000","CENTER_NAME":"EARTH","TIME_SYSTEM":"UTC","RCS_SIZE":"LARGE","LAUNCH_DATE":"2022-01-06","TLE_LINE1":"1 50826U 22001Z   22287.45849880  .00001448  00000-0  10909-3 0  9992","MEAN_ELEMENT_THEORY":"SGP4","REF_FRAME":"TEME","PERIAPSIS":"538.357"},{"MEAN_MOTION":"15.08850269","NORAD_CAT_ID":"50827","MEAN_MOTION_DOT":"0.00002629","ARG_OF_PERICENTER":"39.1795","INCLINATION":"53.2171","FILE":"3612869","COUNTRY_CODE":"US","EPHEMERIS_TYPE":"0","EPOCH":"2022-10-14T16:34:04.770336","TLE_LINE2":"2 50827  53.2171 344.6824 0002004  39.1795 320.9341 15.08850269 42905","OBJECT_NAME":"STARLINK-3329","REV_AT_EPOCH":"4290","DECAY_DATE":null,"PERIOD":"95.437","ELEMENT_SET_NO":"999","MEAN_MOTION_DDOT":"0.0000000000000","SEMIMAJOR_AXIS":"6917.849","OBJECT_ID":"2022-001AA","MEAN_ANOMALY":"320.9341","CLASSIFICATION_TYPE":"U","APOAPSIS":"541.100","RA_OF_ASC_NODE":"344.6824","GP_ID":"215144332","SITE":"AFETR","OBJECT_TYPE":"PAYLOAD","ECCENTRICITY":"0.00020040","BSTAR":"0.00018318000000","CENTER_NAME":"EARTH","RCS_SIZE":"LARGE","TIME_SYSTEM":"UTC","TLE_LINE1":"1 50827U 22001AA  22287.69033299  .00002629  00000-0  18318-3 0  9992","LAUNCH_DATE":"2022-01-06","MEAN_ELEMENT_THEORY":"SGP4","REF_FRAME":"TEME","PERIAPSIS":"538.328"},{"SITE":"AFETR","OBJECT_TYPE":"PAYLOAD","APOAPSIS":"541.395","RA_OF_ASC_NODE":"345.2898","GP_ID":"215144082","ECCENTRICITY":"0.00023940","BSTAR":"-0.00000037586000","RCS_SIZE":"LARGE","TIME_SYSTEM":"UTC","CENTER_NAME":"EARTH","MEAN_ELEMENT_THEORY":"SGP4","TLE_LINE1":"1 50828U 22001AB  22287.55513629 -.00000294  00000-0 -37586-6 0  9997","LAUNCH_DATE":"2022-01-06","PERIAPSIS":"538.083","REF_FRAME":"TEME","NORAD_CAT_ID":"50828","MEAN_MOTION":"15.08842180","INCLINATION":"53.2181","ARG_OF_PERICENTER":"31.0301","FILE":"3612869","MEAN_MOTION_DOT":"-0.00000294","COUNTRY_CODE":"US","EPHEMERIS_TYPE":"0","EPOCH":"2022-10-14T13:19:23.775456","OBJECT_NAME":"STARLINK-3290","REV_AT_EPOCH":"4273","TLE_LINE2":"2 50828  53.2181 345.2898 0002394  31.0301 329.0832 15.08842180 42730","DECAY_DATE":null,"PERIOD":"95.437","SEMIMAJOR_AXIS":"6917.874","MEAN_MOTION_DDOT":"0.0000000000000","ELEMENT_SET_NO":"999","MEAN_ANOMALY":"329.0832","OBJECT_ID":"2022-001AB","CLASSIFICATION_TYPE":"U"},{"TLE_LINE2":"2 50829  53.2181 345.8374 0002219  33.1962 326.9169 15.08851449 42869","REV_AT_EPOCH":"4286","OBJECT_NAME":"STARLINK-3294","COUNTRY_CODE":"US","EPOCH":"2022-10-14T10:23:08.506176","EPHEMERIS_TYPE":"0","MEAN_MOTION_DOT":"0.00005858","INCLINATION":"53.2181","ARG_OF_PERICENTER":"33.1962","FILE":"3611991","MEAN_MOTION":"15.08851449","NORAD_CAT_ID":"50829","CLASSIFICATION_TYPE":"U","OBJECT_ID":"2022-001AC","MEAN_ANOMALY":"326.9169","MEAN_MOTION_DDOT":"0.0000000000000","ELEMENT_SET_NO":"999","SEMIMAJOR_AXIS":"6917.845","DECAY_DATE":null,"PERIOD":"95.437","CENTER_NAME":"EARTH","RCS_SIZE":"LARGE","TIME_SYSTEM":"UTC","BSTAR":"0.00038573000000","ECCENTRICITY":"0.00022190","APOAPSIS":"541.245","RA_OF_ASC_NODE":"345.8374","GP_ID":"215102140","SITE":"AFETR","OBJECT_TYPE":"PAYLOAD","REF_FRAME":"TEME","PERIAPSIS":"538.175","TLE_LINE1":"1 50829U 22001AC  22287.43273734  .00005858  00000-0  38573-3 0  9998","LAUNCH_DATE":"2022-01-06","MEAN_ELEMENT_THEORY":"SGP4"},{"MEAN_MOTION_DOT":"0.00000040","FILE":"3612869","INCLINATION":"53.2168","ARG_OF_PERICENTER":"36.8344","MEAN_MOTION":"15.08840740","NORAD_CAT_ID":"50830","TLE_LINE2":"2 50830  53.2168 355.1708 0002142  36.8344 323.2795 15.08840740 42755","REV_AT_EPOCH":"4275","OBJECT_NAME":"STARLINK-3278","EPOCH":"2022-10-14T13:59:04.892928","EPHEMERIS_TYPE":"0","COUNTRY_CODE":"US","MEAN_MOTION_DDOT":"0.0000000000000","ELEMENT_SET_NO":"999","SEMIMAJOR_AXIS":"6917.878","PERIOD":"95.438","DECAY_DATE":null,"CLASSIFICATION_TYPE":"U","OBJECT_ID":"2022-001AD","MEAN_ANOMALY":"323.2795","ECCENTRICITY":"0.00021420","GP_ID":"215145084","RA_OF_ASC_NODE":"355.1708","APOAPSIS":"541.225","OBJECT_TYPE":"PAYLOAD","SITE":"AFETR","CENTER_NAME":"EARTH","TIME_SYSTEM":"UTC","RCS_SIZE":"LARGE","BSTAR":"0.00002063100000","LAUNCH_DATE":"2022-01-06","TLE_LINE1":"1 50830U 22001AD  22287.58269552  .00000040  00000-0  20631-4 0  9994","MEAN_ELEMENT_THEORY":"SGP4","REF_FRAME":"TEME","PERIAPSIS":"538.261"},{"SEMIMAJOR_AXIS":"6917.833","MEAN_MOTION_DDOT":"0.0000000000000","ELEMENT_SET_NO":"999","DECAY_DATE":null,"PERIOD":"95.437","CLASSIFICATION_TYPE":"U","MEAN_ANOMALY":"330.1243","OBJECT_ID":"2022-001AE","INCLINATION":"53.2188","ARG_OF_PERICENTER":"29.9872","FILE":"3612869","MEAN_MOTION_DOT":"0.00004687","NORAD_CAT_ID":"50831","MEAN_MOTION":"15.08855377","REV_AT_EPOCH":"4293","OBJECT_NAME":"STARLINK-3299","TLE_LINE2":"2 50831  53.2188 343.9428 0002157  29.9872 330.1243 15.08855377 42934","COUNTRY_CODE":"US","EPHEMERIS_TYPE":"0","EPOCH":"2022-10-14T20:28:37.457184","MEAN_ELEMENT_THEORY":"SGP4","TLE_LINE1":"1 50831U 22001AE  22287.85321131  .00004687  00000-0  31227-3 0  9990","LAUNCH_DATE":"2022-01-06","PERIAPSIS":"538.206","REF_FRAME":"TEME","ECCENTRICITY":"0.00021570","SITE":"AFETR","OBJECT_TYPE":"PAYLOAD","APOAPSIS":"541.191","RA_OF_ASC_NODE":"343.9428","GP_ID":"215143832","RCS_SIZE":"LARGE","TIME_SYSTEM":"UTC","CENTER_NAME":"EARTH","BSTAR":"0.00031227000000"}];
